ONEWEB-0216             
1 48801U 21045AL  23340.32171070 -.00000344  00000+0 -94817-3 0  9990
2 48801  87.8992  83.1340 0001532 101.5694 258.5608 13.15548501122835
ONEWEB-0239             
1 48802U 21045AM  23340.32647163 -.00000088  00000+0 -26661-3 0  9999
2 48802  87.9011  83.0925 0001845 137.1546 222.9728 13.15549671122876
ONEWEB-0249             
1 48967U 21060A   23340.23304907 -.00000042  00000+0 -14397-3 0  9997
2 48967  87.9089  52.6653 0001763 101.8602 258.2726 13.16595866118034
ONEWEB-0250             
1 48968U 21060B   23340.23726956 -.00000121  00000+0 -34952-3 0  9997
2 48968  87.9088  52.6489 0001985 117.5417 242.5915 13.16593031118011
ONEWEB-0252             
1 48970U 21060D   23340.26472555  .00000042  00000+0  75155-4 0  9997
2 48970  87.9092  52.6527 0001612 102.4752 257.6560 13.16595864118080
ONEWEB-0253             
1 48971U 21060E   23340.25416215 -.00000111  00000+0 -32351-3 0  9997
2 48971  87.9022  52.6803 0001626 115.0637 245.0663 13.16595325118018
ONEWEB-0254             
1 48972U 21060F   23340.26260935  .00000033  00000+0  52720-4 0  9999
2 48972  87.9091  52.6427 0001614 113.3760 246.7541 13.16596442118016
ONEWEB-0255             
1 48973U 21060G   23340.22464023  .00014810  00000+0  38685-1 0  9999
2 48973  87.9091  52.6851 0002623 129.5211 230.6152 13.16523993118087
